SCD 1                   
1 22490U 93009B   24357.23556380  .00000771  00000+0  16112-3 0  9999
2 22490  24.9708 312.7439 0042333 163.4668 328.6780 14.45646469682590
TECHSAT 1B (GO-32)      
1 25397U 98043D   24357.52815423  .00000244  00000+0  12603-3 0  9995
2 25397  98.9493 327.3321 0001372  22.7594 337.3645 14.24215943374227
SCD 2                   
1 25504U 98060A   24357.63063453  .00000784  00000+0  16913-3 0  9991
2 25504  24.9934 171.0047 0016934 161.0182 264.8606 14.45100461381898
DLR-TUBSAT              
1 25757U 99029B   24357.49558013  .00000344  00000+0  96545-4 0  9994
2 25757  98.6139 325.8742 0013900 193.5076 166.5749 14.52133729354624
TERRA                   
1 25994U 99068A   24357.63660609  .00001036  00000+0  22355-3 0  9997
2 25994  98.0252  55.4065 0003378 119.8162  33.3861 14.60327747330541
MAROC-TUBSAT            
1 27004U 01056D   24357.42465125 -.00000002  00000+0  50038-4 0  9997
2 27004  99.7542 154.2595 0020624  91.1684 295.1627 13.70228414151994
AQUA                    
1 27424U 02022A   24357.57704434  .00002293  00000+0  48210-3 0  9993
2 27424  98.3557 308.0363 0000657 114.3976 304.5819 14.60543169204162
IRS-P6 (RESOURCESAT-1)  
1 28051U 03046A   24357.56510181  .00000496  00000+0  18120-3 0  9990
2 28051  98.2692  47.4355 0065012 164.8469 305.3144 14.35791707102797
SHIYAN 1 (SY-1)         
1 28220U 04012A   24357.55483079  .00014051  00000+0  69594-3 0  9999
2 28220  97.9441  33.8814 0009646 105.6650 254.5647 15.17855683128503
AURA                    
1 28376U 04026A   24357.60452598  .00002397  00000+0  51305-3 0  9995
2 28376  98.2743 301.4782 0001140  87.7599 272.3731 14.59654690 87152
IRS-P5 (CARTOSAT-1)     
1 28649U 05017A   24357.53357544  .00003213  00000+0  35077-3 0  9992
2 28649  97.5912  33.1866 0002587  77.6470 282.5036 14.88573811 63162
SINAH 1                 
1 28893U 05043D   24357.34184657  .00001058  00000+0  21391-3 0  9993
2 28893  98.2156 120.1247 0014887 169.3012 190.8509 14.63343579 21257
EROS B                  
1 29079U 06014A   24357.60067604  .00036647  00000+0  15168-2 0  9996
2 29079  97.3402 106.3063 0006443 287.2192  72.8340 15.23827255 36116
RESURS-DK 1             
1 29228U 06021A   24357.37230433  .00004828  00000+0  30815-3 0  9999
2 29228  69.9350 298.3825 0001528  59.8354 300.2961 15.09346536 20706
ARIRANG-2 (KOMPSAT-2)   
1 29268U 06031A   24357.57301450  .00000743  00000+0  15020-3 0  9997
2 29268  97.8439 197.0846 0014563 356.7366  28.1552 14.64002420982206
LAPAN-TUBSAT            
1 29709U 07001A   24357.55184896  .00001429  00000+0  17481-3 0  9991
2 29709  98.0922 335.2129 0013140 143.0187 217.1935 14.84802103970743
HAIYANG-1B              
1 31113U 07010A   24357.50508669  .00000276  00000+0  12120-3 0  9990
2 31113  98.3039 351.0347 0013845  12.6282 347.5245 14.30783460923165
COSMO-SKYMED 1          
1 31598U 07023A   24357.55784019  .00001249  00000+0  16347-3 0  9997
2 31598  97.8860 177.9924 0001449  81.1421 278.9956 14.82154439949021
TERRASAR-X              
1 31698U 07026A   24356.56892072  .00004459  00000+0  21537-3 0  9993
2 31698  97.4448   1.0425 0001928  83.6524 276.4930 15.19159170971507
WORLDVIEW-1 (WV-1)      
1 32060U 07041A   24357.34006881  .00015592  00000+0  63836-3 0  9994
2 32060  97.3920 113.9622 0002954 330.9963  29.1110 15.24390450960383
YAOGAN-3                
1 32289U 07055A   24357.59390113  .00004045  00000+0  45436-3 0  9990
2 32289  97.8718  21.2080 0001792  82.2148 277.9271 14.87302778925258
COSMO-SKYMED 2          
1 32376U 07059A   24357.52405094  .00001248  00000+0  16331-3 0  9993
2 32376  97.8859 177.9523 0001502  88.3063 271.8322 14.82140505921769
RADARSAT-2              
1 32382U 07061A   24357.53331942  .00000156  00000+0  77315-4 0  9991
2 32382  98.5792   1.1984 0001150  91.5008 268.6306 14.29981001888542
CARTOSAT-2A             
1 32783U 08021A   24357.56109695  .00001633  00000+0  22890-3 0  9992
2 32783  97.8422  51.5214 0012587  73.5384 286.7210 14.78758061898758
HUANJING 1A (HJ-1A)     
1 33320U 08041A   24357.56719979  .00003178  00000+0  40939-3 0  9994
2 33320  97.6352 355.5152 0021215 113.3361 247.0087 14.81581338878137
HUANJING 1B (HJ-1B)     
1 33321U 08041B   24357.55970919  .00002231  00000+0  28795-3 0  9992
2 33321  97.6269 359.9234 0038106 157.6213 202.6673 14.81432462878162
GEOEYE 1                
1 33331U 08042A   24357.54607473  .00001235  00000+0  24304-3 0  9990
2 33331  98.1225  67.4617 0003352 332.1567  27.9455 14.64317103870864
THEOS                   
1 33396U 08049A   24357.57039795  .00000158  00000+0  94405-4 0  9990
2 33396  98.6356  59.1874 0001118  84.9873 275.1431 14.20037339841094
COSMO-SKYMED 3          
1 33412U 08054A   24357.57921900  .00008056  00000+0  63310-3 0  9998
2 33412  97.8743 196.2006 0018368 304.3624  55.5861 15.01022315875511
YAOGAN-4                
1 33446U 08061A   24357.39238791  .00001963  00000+0  25865-3 0  9995
2 33446  97.8941 285.9760 0015881  38.9437 321.2917 14.81165646865404
GOSAT (IBUKI)           
1 33492U 09002A   24357.36647646  .00001784  00000+0  32278-3 0  9999
2 33492  98.0520 105.5277 0001014  86.1296 274.0025 14.67561010851995
YAOGAN-6                
1 34839U 09021A   24357.46275724  .00055491  00000+0  57072-3 0  9994
2 34839  97.1920 325.6973 0010761 182.3846 177.7364 15.64644131872691
DEIMOS-1                
1 35681U 09041A   24357.54722270  .00001439  00000+0  22561-3 0  9992
2 35681  97.6838 169.5649 0002443 114.2111 245.9354 14.74084292827055
DUBAISAT-1              
1 35682U 09041B   24357.47019569  .00002631  00000+0  41672-3 0  9994
2 35682  97.9302 128.8598 0011079  16.4410 343.7155 14.73024056825286
OCEANSAT-2              
1 35931U 09051A   24357.53026870  .00000279  00000+0  21719-3 0  9998
2 35931  98.2432  27.8726 0015927 330.6487  29.3783 13.99546839803569
WORLDVIEW-2 (WV-2)      
1 35946U 09055A   24357.55714198  .00000321  00000+0  12286-3 0  9994
2 35946  98.4916  67.6107 0004775  45.6797 314.4780 14.37048896797835
SMOS                    
1 36036U 09059A   24357.53581766  .00000745  00000+0  25181-3 0  9998
2 36036  98.4382 181.7473 0001232  89.5779 270.5551 14.39729588795516
YAOGAN-7                
1 36110U 09069A   24357.53180431  .00001435  00000+0  21051-3 0  9995
2 36110  98.0783 233.7336 0024904 346.7234  13.3317 14.76937791809642
TANDEM-X                
1 36605U 10030A   24356.56892007  .00004538  00000+0  21913-3 0  9999
2 36605  97.4456   1.0415 0001895  93.0184 267.1268 15.19159170804256
CARTOSAT-2B             
1 36795U 10035A   24357.59739449  .00001620  00000+0  22734-3 0  9999
2 36795  97.8361  51.0559 0012648 143.8960 216.3107 14.78737720779811
YAOGAN-10               
1 36834U 10038A   24357.56318225  .00001460  00000+0  18329-3 0  9995
2 36834  97.9385  13.6420 0001612  87.3236  67.9631 14.83659921776855
COSMO-SKYMED 4          
1 37216U 10060A   24357.53674421  .00001179  00000+0  15466-3 0  9991
2 37216  97.8860 177.9730 0001363  83.9997 276.1371 14.82157892764338
RESOURCESAT-2           
1 37387U 11015A   24357.56497627  .00000352  00000+0  17974-3 0  9993
2 37387  98.5551  57.8569 0003266 294.2183  65.8654 14.21706228709226
HAIYANG-2A              
1 37781U 11043A   24357.57506605  .00000021  00000+0  64297-4 0  9994
2 37781  99.3307 358.0254 0000465  34.3066 325.8115 13.78818687672044
RASAT                   
1 37791U 11044D   24357.55251931  .00001322  00000+0  24316-3 0  9995
2 37791  98.0746  86.1550 0022200 107.5965  17.0124 14.67109323713739
SRMSAT                  
1 37841U 11058D   24357.63797003  .00000605  00000+0  18563-3 0  9990
2 37841  19.9717  96.7994 0011859   7.4286 120.2062 14.11315557681218
YAOGAN-13               
1 37941U 11072A   24357.58062587  .00145622  00000+0  92314-3 0  9998
2 37941  97.7214 356.4493 0004883  85.0326 275.1496 15.76092525626243
PLEIADES 1A             
1 38012U 11076F   24357.59343216  .00000898  00000+0  20294-3 0  9997
2 38012  98.1871  69.4880 0001385  81.8471  24.0659 14.58545757693040
ZIYUAN 1-02C (ZY 1-02C) 
1 38038U 11079A   24357.63689963  .00000974  00000+0  34028-3 0  9990
2 38038  98.4772  63.4852 0007486 122.1526  35.5634 14.37412861681382
ZIYUAN 3-1 (ZY 3-1)     
1 38046U 12001A   24357.57231469  .00022686  00000+0  49312-3 0  9998
2 38046  97.2169  56.5591 0004404 163.5929 196.5463 15.44333085719822
ARIRANG-3 (KOMPSAT-3)   
1 38338U 12025B   24357.54235888  .00001436  00000+0  28585-3 0  9993
2 38338  98.2868 304.3277 0010534  17.9632 342.1940 14.63576802672207
EXACTVIEW-1 (ADS-1B)    
1 38709U 12039C   24357.26818442  .00000342  00000+0  16674-3 0  9993
2 38709  98.9509  92.6842 0009996 295.5307  64.4837 14.24680582645539
SPOT 6                  
1 38755U 12047A   24357.58946949  .00000159  00000+0  44039-4 0  9995
2 38755  98.2015  62.0240 0001205  80.9949 279.1387 14.58534408654101
PLEIADES 1B             
1 39019U 12068A   24357.53835367  .00000891  00000+0  20162-3 0  9991
2 39019  98.1792  69.2818 0001264  89.5998 270.5346 14.58535185641895
GOKTURK 2               
1 39030U 12073A   24357.57994102  .00001197  00000+0  18677-3 0  9995
2 39030  97.7265 210.0456 0000936  63.8898 296.2408 14.74575201644664
LANDSAT 8               
1 39084U 13008A   24357.56609783  .00000871  00000+0  20339-3 0  9996
2 39084  98.2094  64.6957 0001233  89.2811 270.8529 14.57107286619025
SARAL                   
1 39086U 13009A   24357.59824208  .00000305  00000+0  12829-3 0  9990
2 39086  98.5482 180.1629 0002956  89.3924 270.7599 14.32612493618052
GAOFEN-1                
1 39150U 13018A   24357.59559967  .00001901  00000+0  27975-3 0  9990
2 39150  97.9711  67.7558 0018123 210.0927 149.9243 14.76471021628324
VNREDSAT 1              
1 39160U 13021B   24357.55676742  .00001438  00000+0  28065-3 0  9998
2 39160  97.9753  58.6708 0001445  86.3179 273.8190 14.64414143620991
ARIRANG-5 (KOMPSAT-5)   
1 39227U 13042A   24357.58842405  .00004006  00000+0  29020-3 0  9995
2 39227  97.6166 180.8582 0003000 150.8830 209.2564 15.04527726622423
